QIANFAN-57              
1 62787U 25016C   25266.02077060  .00000069  00000+0  87620-4 0  9998
2 62787  88.9766 111.5359 0002316  65.2086 294.9306 13.50965540 36303
QIANFAN-58              
1 62788U 25016D   25269.99138674  .00000082  00000+0  10781-3 0  9995
2 62788  88.9730 110.9812 0013028 198.5874 161.4803 13.50972568 36880
QIANFAN-59              
1 62789U 25016E   25269.20133272  .00000041  00000+0  44248-4 0  9990
2 62789  88.9754 111.1182 0013222 205.2457 154.8050 13.50971629 36774
QIANFAN-60              
1 62790U 25016F   25269.97926881  .00000047  00000+0  52497-4 0  9993
2 62790  88.9737 111.0250 0014578 199.9022 160.1563 13.52523983 36861
QIANFAN-61              
1 62791U 25016G   25269.93373404  .00000058  00000+0  70603-4 0  9998
2 62791  88.9803 111.1393 0013869 198.7748 161.2893 13.50972138 36876
QIANFAN-62              
1 62792U 25016H   25269.93789192  .00000046  00000+0  52145-4 0  9992
2 62792  88.9749 111.0488 0015238 199.7077 160.3487 13.50966069 36862
QIANFAN-63              
1 62793U 25016J   25266.77739156  .00000086  00000+0  11768-3 0  9996
2 62793  88.9760 111.3217 0014609 215.7404 144.2770 13.49732499 36472
QIANFAN-64              
1 62794U 25016K   25269.92962145  .00000014  00000+0  24687-5 0  9990
2 62794  88.9741 110.9804 0013296 197.0689 163.0017 13.50970567 36898
